SCD 1                   
1 22490U 93009B   25022.50011253  .00000975  00000+0  21715-3 0  9995
2 22490  24.9690 119.8391 0042363 134.1058 322.3207 14.45691017687122
TECHSAT 1B (GO-32)      
1 25397U 98043D   25022.50968529  .00000323  00000+0  16028-3 0  9992
2 25397  98.9533 358.8783 0000498 199.0187 161.0973 14.24238987378635
SCD 2                   
1 25504U 98060A   25022.23609288  .00000858  00000+0  18972-3 0  9998
2 25504  24.9971 342.3850 0017087 124.6932   8.1136 14.45149050386329
DLR-TUBSAT              
1 25757U 99029B   25022.50219506  .00000444  00000+0  12129-3 0  9993
2 25757  98.6182 357.6787 0015429 102.5487 257.7434 14.52164407359129
TERRA                   
1 25994U 99068A   25022.46359986  .00001280  00000+0  27356-3 0  9998
2 25994  98.0205  85.2561 0003205  56.9305  67.8701 14.60413655335049
MAROC-TUBSAT            
1 27004U 01056D   25022.46616356  .00000001  00000+0  53870-4 0  9990
2 27004  99.7568 185.7270 0019981  13.6504  55.5349 13.70231360156241
AQUA                    
1 27424U 02022A   25022.48183939  .00002857  00000+0  59590-3 0  9993
2 27424  98.3595 339.2141 0001994 103.5617   6.1482 14.60721957208675
IRS-P6 (RESOURCESAT-1)  
1 28051U 03046A   25022.42619309  .00000658  00000+0  23543-3 0  9992
2 28051  98.2645  77.0293 0065795  73.7848 343.2568 14.35839130107229
SHIYAN 1 (SY-1)         
1 28220U 04012A   25021.67168791  .00018065  00000+0  86839-3 0  9992
2 28220  97.9402  65.4927 0008366  13.8841 346.2620 15.18849288133079
AURA                    
1 28376U 04026A   25022.44999151  .00002895  00000+0  61522-3 0  9993
2 28376  98.2778 332.2516 0001610  87.7936 272.3448 14.59830434 91651
IRS-P5 (CARTOSAT-1)     
1 28649U 05017A   25022.04888391  .00004294  00000+0  46411-3 0  9991
2 28649  97.5874  62.4242 0001175  44.3765 315.7547 14.88806845 67708
SINAH 1                 
1 28893U 05043D   25022.24745239  .00001248  00000+0  25018-3 0  9992
2 28893  98.2166 150.9201 0015816  78.0083 282.2891 14.63427956 25779
EROS B                  
1 29079U 06014A   25022.50210815  .00047596  00000+0  18181-2 0  9992
2 29079  97.3383 136.6149 0005722 187.1271 172.9888 15.26455836 40827
RESURS-DK 1             
1 29228U 06021A   25022.45049956  .00005101  00000+0  32236-3 0  9990
2 29228  69.9329 218.3967 0003773 352.2651   7.8454 15.09671587 25399
ARIRANG-2 (KOMPSAT-2)   
1 29268U 06031A   25022.53384483  .00000990  00000+0  19702-3 0  9995
2 29268  97.8437 226.5786 0013319 252.1753 134.8173 14.64068345986736
LAPAN-TUBSAT            
1 29709U 07001A   25022.48258752  .00001863  00000+0  22515-3 0  9992
2 29709  98.0959   6.6172 0013528  52.1486 308.0950 14.84919161975332
HAIYANG-1B              
1 31113U 07010A   25022.48464658  .00000361  00000+0  15338-3 0  9995
2 31113  98.3061  20.6318 0012416 276.5773  83.3997 14.30809106927592
COSMO-SKYMED 1          
1 31598U 07023A   25022.47767450  .00001526  00000+0  19830-3 0  9996
2 31598  97.8874 208.4675 0001240  79.9242 280.2111 14.82144319953608
TERRASAR-X              
1 31698U 07026A   25021.46110601  .00003855  00000+0  18665-3 0  9990
2 31698  97.4458  31.4814 0001735  87.6020 272.5413 15.19158349975535
WORLDVIEW-1 (WV-1)      
1 32060U 07041A   25022.05636842  .00017263  00000+0  71205-3 0  9994
2 32060  97.3869 144.2690 0003879 293.5132  66.5698 15.24116193965062
YAOGAN-3                
1 32289U 07055A   25022.47051334  .00005324  00000+0  59127-3 0  9999
2 32289  97.8694  51.8217 0001141  78.4897 281.6447 14.87622958929849
COSMO-SKYMED 2          
1 32376U 07059A   25022.51138437  .00001511  00000+0  19639-3 0  9993
2 32376  97.8872 208.4932 0001488  82.8772 277.2610 14.82133890926356
RADARSAT-2              
1 32382U 07061A   25022.46041379  .00000230  00000+0  10615-3 0  9997
2 32382  98.5799  31.6744 0001164  88.6436 271.4879 14.29986967892962
CARTOSAT-2A             
1 32783U 08021A   25022.41742209  .00002047  00000+0  28534-3 0  9991
2 32783  97.8376  81.5834 0011040 335.7198  24.3492 14.78759657903315
HUANJING 1A (HJ-1A)     
1 33320U 08041A   25022.49612828  .00004043  00000+0  51599-3 0  9997
2 33320  97.6368  25.0023 0020171  18.8119 341.3836 14.81844312882713
HUANJING 1B (HJ-1B)     
1 33321U 08041B   25022.49288754  .00003075  00000+0  39264-3 0  9994
2 33321  97.6279  29.3725 0038886  59.7172 300.7881 14.81603432882744
GEOEYE 1                
1 33331U 08042A   25022.49929275  .00001550  00000+0  30194-3 0  9995
2 33331  98.1179  97.9902 0003513 203.7775 156.3266 14.64419898875394
THEOS                   
1 33396U 08049A   25022.43188893  .00000191  00000+0  11008-3 0  9993
2 33396  98.6307  89.2983 0000901  92.7551 267.3728 14.20053835845471
COSMO-SKYMED 3          
1 33412U 08054A   25022.50450930  .00010804  00000+0  83470-3 0  9994
2 33412  97.8826 227.5775 0017228 192.9075 167.1710 15.01597299880156
YAOGAN-4                
1 33446U 08061A   25022.39861448  .00003483  00000+0  45211-3 0  9992
2 33446  97.8962 316.5194 0013368 296.6630  63.3213 14.81329289869991
GOSAT (IBUKI)           
1 33492U 09002A   25022.25261970  .00002364  00000+0  42506-3 0  9999
2 33492  98.0513 135.8908 0000904 106.9171 253.2133 14.67558890856529
YAOGAN-6                
1 34839U 09021A   25022.44119847  .00074514  00000+0  64966-3 0  9992
2 34839  97.1936 357.3843 0014023  85.4079 274.8784 15.68638479877548
DEIMOS-1                
1 35681U 09041A   25022.49927402  .00001709  00000+0  26587-3 0  9992
2 35681  97.6858 198.9226 0002474  63.7029 296.4434 14.74195680831615
DUBAISAT-1              
1 35682U 09041B   25022.30752411  .00003508  00000+0  55049-3 0  9993
2 35682  97.9317 158.9924 0009625 271.5693  88.4413 14.73226565829823
OCEANSAT-2              
1 35931U 09051A   25022.48608997 -.00000069  00000+0 -21715-4 0  9994
2 35931  98.2386  55.7505 0016126 234.5682 125.3979 13.99550019807892
WORLDVIEW-2 (WV-2)      
1 35946U 09055A   25022.47118721  .00000465  00000+0  17117-3 0  9992
2 35946  98.4869  98.1097 0003150 311.3492  48.7424 14.37083405802272
SMOS                    
1 36036U 09059A   25022.53104793  .00000947  00000+0  31586-3 0  9999
2 36036  98.4394 212.2867 0001091  75.7271 284.4038 14.39792941799974
YAOGAN-7                
1 36110U 09069A   25022.08504559  .00001681  00000+0  24467-3 0  9993
2 36110  98.0760 264.3206 0023767 244.3642 115.5112 14.77056775814150
TANDEM-X                
1 36605U 10030A   25021.52697446  .00003941  00000+0  19073-3 0  9996
2 36605  97.4459  31.5483 0002053  92.0951 268.0519 15.19158719808969
CARTOSAT-2B             
1 36795U 10035A   25022.45373105  .00001964  00000+0  27399-3 0  9990
2 36795  97.8314  81.0943 0012778  50.7346 309.4997 14.78739906784373
YAOGAN-10               
1 36834U 10038A   25022.51234883  .00001878  00000+0  23328-3 0  9995
2 36834  97.9373  44.4072 0001379  82.6058  43.9936 14.83781569781444
COSMO-SKYMED 4          
1 37216U 10060A   25022.52407262  .00001393  00000+0  18163-3 0  9992
2 37216  97.8874 208.5149 0001330  87.0227 273.1138 14.82136932768922
RESOURCESAT-2           
1 37387U 11015A   25022.46099310  .00000418  00000+0  20974-3 0  9996
2 37387  98.5502  87.8037 0004155 186.8779 173.2343 14.21703841713615
HAIYANG-2A              
1 37781U 11043A   25022.48744999  .00000026  00000+0  68880-4 0  9991
2 37781  99.3319  28.4393 0000677 143.9869 216.1329 13.78823615676301
RASAT                   
1 37791U 11044D   25022.50208743  .00001563  00000+0  28527-3 0  9998
2 37791  98.0713 116.6402 0021199  13.8536  42.2846 14.67214887718274
SRMSAT                  
1 37841U 11058D   25022.04092101  .00000675  00000+0  22358-3 0  9996
2 37841  19.9719 272.8614 0011674 341.4107 151.4596 14.11342474685517
YAOGAN-13               
1 37941U 11072A   25022.51290886  .00295165  00000+0  10376-2 0  9991
2 37941  97.7201  31.1725 0003166 104.1365 256.0258 15.88450581631134
PLEIADES 1A             
1 38012U 11076F   25022.52343847  .00001135  00000+0  25396-3 0  9993
2 38012  98.1827  99.9518 0000919  86.7100 330.9270 14.58553252697559
ZIYUAN 1-02C (ZY 1-02C) 
1 38038U 11079A   25022.45331111  .00001184  00000+0  40989-3 0  9996
2 38038  98.4724  93.8551 0007116  42.2648  13.7525 14.37495033685810
ZIYUAN 3-1 (ZY 3-1)     
1 38046U 12001A   25022.46389537  .00027616  00000+0  56881-3 0  9993
2 38046  97.2135  87.2551 0005475  80.4169 279.7699 15.45877162724599
ARIRANG-3 (KOMPSAT-3)   
1 38338U 12025B   25022.45025823  .00001650  00000+0  33770-3 0  9999
2 38338  98.2887 335.3764 0005741 263.3347  96.7201 14.62136786676722
EXACTVIEW-1 (ADS-1B)    
1 38709U 12039C   25022.23953183  .00000445  00000+0  21092-3 0  9996
2 38709  98.9484 124.2456 0010633 199.5618 160.5154 14.24712405649941
SPOT 6                  
1 38755U 12047A   25022.46006814  .00001109  00000+0  24852-3 0  9996
2 38755  98.1967  92.4810 0001233  82.4226 277.7113 14.58523659658608
PLEIADES 1B             
1 39019U 12068A   25022.47768815  .00001141  00000+0  25507-3 0  9994
2 39019  98.1748  99.7252 0001128  91.5395 268.5934 14.58559635646407
GOKTURK 2               
1 39030U 12073A   25022.52179012  .00001504  00000+0  23238-3 0  9996
2 39030  97.7252 239.5715 0001321 111.2920 248.8430 14.74676180649220
LANDSAT 8               
1 39084U 13008A   25022.46735174  .00001073  00000+0  24810-3 0  9992
2 39084  98.2048  95.1422 0001176  97.6361 262.4971 14.57132259623525
SARAL                   
1 39086U 13009A   25022.46832725  .00000375  00000+0  15419-3 0  9994
2 39086  98.5494 210.6176 0002129  27.6534 332.4762 14.32639675622475
GAOFEN-1                
1 39150U 13018A   25022.49834309  .00002075  00000+0  30430-3 0  9998
2 39150  97.9663  98.2500 0019687 111.8340 248.4966 14.76508559632889
VNREDSAT 1              
1 39160U 13021B   25022.43950253  .00001771  00000+0  34258-3 0  9998
2 39160  97.9706  88.5848 0001102  86.1456 273.9873 14.64532375625512
ARIRANG-5 (KOMPSAT-5)   
1 39227U 13042A   25022.51473392  .00004541  00000+0  32880-3 0  9995
2 39227  97.6175 211.3452 0003862  84.5317 275.6350 15.04475667627070
